[{"OBJECT_NAME":"OBJECT J","OBJECT_ID":"2025-274J","EPOCH":"2026-03-09T17:32:53.019744","MEAN_MOTION":14.93551146,"ECCENTRICITY":0.00127149,"INCLINATION":97.743,"RA_OF_ASC_NODE":359.5505,"ARG_OF_PERICENTER":354.9543,"MEAN_ANOMALY":5.1546,"EPHEMERIS_TYPE":0,"CLASSIFICATION_TYPE":"U","NORAD_CAT_ID":66658,"ELEMENT_SET_NO":999,"REV_AT_EPOCH":1538,"BSTAR":0.00052680347,"MEAN_MOTION_DOT":5.506e-5,"MEAN_MOTION_DDOT":0},{"OBJECT_NAME":"COSMOS 2251 DEB","OBJECT_ID":"1993-036ABE","EPOCH":"2026-03-09T18:24:38.234016","MEAN_MOTION":14.79719145,"ECCENTRICITY":0.00535362,"INCLINATION":74.0436,"RA_OF_ASC_NODE":70.7267,"ARG_OF_PERICENTER":120.1044,"MEAN_ANOMALY":240.5455,"EPHEMERIS_TYPE":0,"CLASSIFICATION_TYPE":"U","NORAD_CAT_ID":34815,"ELEMENT_SET_NO":999,"REV_AT_EPOCH":89914,"BSTAR":0.00087420865,"MEAN_MOTION_DOT":6.703e-5,"MEAN_MOTION_DDOT":0}]
